{
    "links": {
        "self": "http://www.neowsapp.com/rest/v1/neo/3878582?api_key=iIulBulltgU6a56xZRHN4H3l9WmuAYTsLGpBGhQ2"
    },
    "id": "3878582",
    "neo_reference_id": "3878582",
    "name": "(2019 TR2)",
    "designation": "2019 TR2",
    "nasa_jpl_url": "http://ssd.jpl.nasa.gov/sbdb.cgi?sstr=3878582",
    "absolute_magnitude_h": 23.4,
    "estimated_diameter": {
        "kilometers": {
            "estimated_diameter_min": 0.0555334912,
            "estimated_diameter_max": 0.1241766613
        },
        "meters": {
            "estimated_diameter_min": 55.5334911581,
            "estimated_diameter_max": 124.1766612574
        },
        "miles": {
            "estimated_diameter_min": 0.0345069009,
            "estimated_diameter_max": 0.0771597762
        },
        "feet": {
            "estimated_diameter_min": 182.1964991311,
            "estimated_diameter_max": 407.4037573197
        }
    },
    "is_potentially_hazardous_asteroid": false,
    "close_approach_data": [
        {
            "close_approach_date": "1900-10-28",
            "close_approach_date_full": "1900-Oct-28 10:20",
            "epoch_date_close_approach": -2183031600000,
            "relative_velocity": {
                "kilometers_per_second": "13.8904985214",
                "kilometers_per_hour": "50005.7946769216",
                "miles_per_hour": "31071.6561424461"
            },
            "miss_distance": {
                "astronomical": "0.0414198051",
                "lunar": "16.1123041839",
                "kilometers": "6196314.618775137",
                "miles": "3850211.3674334106"
            },
            "orbiting_body": "Earth"
        },
        {
            "close_approach_date": "1904-03-04",
            "close_approach_date_full": "1904-Mar-04 04:42",
            "epoch_date_close_approach": -2077384680000,
            "relative_velocity": {
                "kilometers_per_second": "23.3832908387",
                "kilometers_per_hour": "84179.8470194694",
                "miles_per_hour": "52306.0832771809"
            },
            "miss_distance": {
                "astronomical": "0.3925323472",
                "lunar": "152.6950830608",
                "kilometers": "58722003.047220464",
                "miles": "36488160.7150478432"
            },
            "orbiting_body": "Earth"
        },
        {
            "close_approach_date": "2019-10-29",
            "close_approach_date_full": "2019-Oct-29 03:27",
            "epoch_date_close_approach": 1572319620000,
            "relative_velocity": {
                "kilometers_per_second": "13.8199046916",
                "kilometers_per_hour": "49751.6568896603",
                "miles_per_hour": "30913.7448045781"
            },
            "miss_distance": {
                "astronomical": "0.0496055009",
                "lunar": "19.2965398501",
                "kilometers": "7420877.274923083",
                "miles": "4611119.3181932254"
            },
            "orbiting_body": "Earth"
        },
        {
            "close_approach_date": "2023-03-06",
            "close_approach_date_full": "2023-Mar-06 20:24",
            "epoch_date_close_approach": 1678134240000,
            "relative_velocity": {
                "kilometers_per_second": "23.6754887935",
                "kilometers_per_hour": "85231.7596566511",
                "miles_per_hour": "52959.7008822119"
            },
            "miss_distance": {
                "astronomical": "0.3886546531",
                "lunar": "151.1866600559",
                "kilometers": "58141908.269348897",
                "miles": "36127706.5345608986"
            },
            "orbiting_body": "Earth"
        },
        {
            "close_approach_date": "2113-12-14",
            "close_approach_date_full": "2113-Dec-14 16:42",
            "epoch_date_close_approach": 4542712920000,
            "relative_velocity": {
                "kilometers_per_second": "11.3521331054",
                "kilometers_per_hour": "40867.6791793518",
                "miles_per_hour": "25393.5865434145"
            },
            "miss_distance": {
                "astronomical": "0.2245217831",
                "lunar": "87.3389736259",
                "kilometers": "33587980.520361997",
                "miles": "20870603.3126176786"
            },
            "orbiting_body": "Earth"
        }
    ],
    "orbital_data": {
        "orbit_id": "17",
        "orbit_determination_date": "2020-09-11 07:44:47",
        "first_observation_date": "2019-10-05",
        "last_observation_date": "2019-10-31",
        "data_arc_in_days": 26,
        "observations_used": 89,
        "orbit_uncertainty": "7",
        "minimum_orbit_intersection": ".0329616",
        "jupiter_tisserand_invariant": "3.427",
        "epoch_osculation": "2459000.5",
        "eccentricity": ".6046940641616447",
        "semi_major_axis": "2.141644608834418",
        "inclination": "12.69187452437754",
        "ascending_node_longitude": "24.59701169820597",
        "orbital_period": "1144.773409836808",
        "perihelion_distance": ".8466048263284579",
        "perihelion_argument": "62.67840483685908",
        "aphelion_distance": "3.436684391340378",
        "perihelion_time": "2458823.510576149445",
        "mean_anomaly": "55.65834429652142",
        "mean_motion": ".3144727130335073",
        "equinox": "J2000",
        "orbit_class": {
            "orbit_class_type": "APO",
            "orbit_class_description": "Near-Earth asteroid orbits which cross the Earth’s orbit similar to that of 1862 Apollo",
            "orbit_class_range": "a (semi-major axis) > 1.0 AU; q (perihelion) < 1.017 AU"
        }
    },
    "is_sentry_object": false
}